{
  "type": "FeatureCollection",
  "features": [
    {
      "type": "Feature",
      "properties": {
        "norad_id": 66573,
        "name": "STARLINK-35650",
        "group": "last-30-days",
        "lat": -41.19461827929081,
        "lon": 113.30671630708927,
        "alt_km": 338.97841625900946,
        "timestamp": "2025-12-02T06:27:51.802257+00:00",
        "meta_object_name": "STARLINK-35650",
        "meta_object_id": "2025-268S",
        "meta_epoch": "2025-12-01T20:00:01.999008",
        "meta_mean_motion": 15.79350957,
        "meta_eccentricity": 0.0001488,
        "meta_inclination": 42.9967,
        "meta_ra_of_asc_node": 185.9183,
        "meta_arg_of_pericenter": 270.8333,
        "meta_mean_anomaly": 53.4615,
        "meta_ephemeris_type": 0,
        "meta_classification_type": "U",
        "meta_norad_cat_id": 66573,
        "meta_element_set_no": 999,
        "meta_rev_at_epoch": 291,
        "meta_bstar": -0.010285,
        "meta_mean_motion_dot": -0.0169642,
        "meta_mean_motion_ddot": 0,
        "tle_line1": "1 66573U 25268S   25335.83335647 -.01696420  00000+0 -10285-1 0  9993",
        "tle_line2": "2 66573  42.9967 185.9183 0001488 270.8333  53.4615 15.79350957  2915"
      },
      "geometry": {
        "type": "Point",
        "coordinates": [
          113.30671630708927,
          -41.19461827929081
        ]
      }
    },
    {
      "type": "Feature",
      "properties": {
        "norad_id": 66574,
        "name": "STARLINK-35812",
        "group": "last-30-days",
        "lat": -40.709395610524844,
        "lon": 115.81621162134357,
        "alt_km": 338.79635807731665,
        "timestamp": "2025-12-02T06:27:51.802285+00:00",
        "meta_object_name": "STARLINK-35812",
        "meta_object_id": "2025-268T",
        "meta_epoch": "2025-12-01T20:00:01.999008",
        "meta_mean_motion": 15.79347283,
        "meta_eccentricity": 0.0001848,
        "meta_inclination": 42.997,
        "meta_ra_of_asc_node": 185.9132,
        "meta_arg_of_pericenter": 266.1884,
        "meta_mean_anomaly": 60.0789,
        "meta_ephemeris_type": 0,
        "meta_classification_type": "U",
        "meta_norad_cat_id": 66574,
        "meta_element_set_no": 999,
        "meta_rev_at_epoch": 291,
        "meta_bstar": -0.010348,
        "meta_mean_motion_dot": -0.01705541,
        "meta_mean_motion_ddot": 0,
        "tle_line1": "1 66574U 25268T   25335.83335647 -.01705541  00000+0 -10348-1 0  9999",
        "tle_line2": "2 66574  42.9970 185.9132 0001848 266.1884  60.0789 15.79347283  2917"
      },
      "geometry": {
        "type": "Point",
        "coordinates": [
          115.81621162134357,
          -40.709395610524844
        ]
      }
    },
    {
      "type": "Feature",
      "properties": {
        "norad_id": 66575,
        "name": "STARLINK-35810",
        "group": "last-30-days",
        "lat": -40.13137469933011,
        "lon": 118.45443508288353,
        "alt_km": 339.11805562256995,
        "timestamp": "2025-12-02T06:27:51.802297+00:00",
        "meta_object_name": "STARLINK-35810",
        "meta_object_id": "2025-268U",
        "meta_epoch": "2025-12-01T20:00:01.999008",
        "meta_mean_motion": 15.7931085,
        "meta_eccentricity": 0.0001584,
        "meta_inclination": 42.9969,
        "meta_ra_of_asc_node": 185.9078,
        "meta_arg_of_pericenter": 265.8061,
        "meta_mean_anomaly": 62.6296,
        "meta_ephemeris_type": 0,
        "meta_classification_type": "U",
        "meta_norad_cat_id": 66575,
        "meta_element_set_no": 999,
        "meta_rev_at_epoch": 291,
        "meta_bstar": -0.010482,
        "meta_mean_motion_dot": -0.01722343,
        "meta_mean_motion_ddot": 0,
        "tle_line1": "1 66575U 25268U   25335.83335647 -.01722343  00000+0 -10482-1 0  9998",
        "tle_line2": "2 66575  42.9969 185.9078 0001584 265.8061  62.6296 15.79310850  2916"
      },
      "geometry": {
        "type": "Point",
        "coordinates": [
          118.45443508288353,
          -40.13137469933011
        ]
      }
    },
    {
      "type": "Feature",
      "properties": {
        "norad_id": 66576,
        "name": "STARLINK-35814",
        "group": "last-30-days",
        "lat": -39.50161878160891,
        "lon": 121.0178282006289,
        "alt_km": 339.140868297779,
        "timestamp": "2025-12-02T06:27:51.802308+00:00",
        "meta_object_name": "STARLINK-35814",
        "meta_object_id": "2025-268V",
        "meta_epoch": "2025-12-01T20:00:01.999008",
        "meta_mean_motion": 15.79270207,
        "meta_eccentricity": 0.0001771,
        "meta_inclination": 42.9969,
        "meta_ra_of_asc_node": 185.9023,
        "meta_arg_of_pericenter": 264.1766,
        "meta_mean_anomaly": 66.4002,
        "meta_ephemeris_type": 0,
        "meta_classification_type": "U",
        "meta_norad_cat_id": 66576,
        "meta_element_set_no": 999,
        "meta_rev_at_epoch": 291,
        "meta_bstar": -0.010545,
        "meta_mean_motion_dot": -0.01728754,
        "meta_mean_motion_ddot": 0,
        "tle_line1": "1 66576U 25268V   25335.83335647 -.01728754  00000+0 -10545-1 0  9991",
        "tle_line2": "2 66576  42.9969 185.9023 0001771 264.1766  66.4002 15.79270207  2917"
      },
      "geometry": {
        "type": "Point",
        "coordinates": [
          121.0178282006289,
          -39.50161878160891
        ]
      }
    },
    {
      "type": "Feature",
      "properties": {
        "norad_id": 66577,
        "name": "STARLINK-35815",
        "group": "last-30-days",
        "lat": -38.81052891007469,
        "lon": 123.55336654072639,
        "alt_km": 339.3727651088693,
        "timestamp": "2025-12-02T06:27:51.802318+00:00",
        "meta_object_name": "STARLINK-35815",
        "meta_object_id": "2025-268W",
        "meta_epoch": "2025-12-01T20:00:01.999008",
        "meta_mean_motion": 15.79232053,
        "meta_eccentricity": 0.0001641,
        "meta_inclination": 42.9968,
        "meta_ra_of_asc_node": 185.8969,
        "meta_arg_of_pericenter": 263.5975,
        "meta_mean_anomaly": 69.1422,
        "meta_ephemeris_type": 0,
        "meta_classification_type": "U",
        "meta_norad_cat_id": 66577,
        "meta_element_set_no": 999,
        "meta_rev_at_epoch": 291,
        "meta_bstar": -0.010666,
        "meta_mean_motion_dot": -0.01743361,
        "meta_mean_motion_ddot": 0,
        "tle_line1": "1 66577U 25268W   25335.83335647 -.01743361  00000+0 -10666-1 0  9997",
        "tle_line2": "2 66577  42.9968 185.8969 0001641 263.5975  69.1422 15.79232053  2919"
      },
      "geometry": {
        "type": "Point",
        "coordinates": [
          123.55336654072639,
          -38.81052891007469
        ]
      }
    },
    {
      "type": "Feature",
      "properties": {
        "norad_id": 66578,
        "name": "STARLINK-35743",
        "group": "last-30-days",
        "lat": -38.112667149355715,
        "lon": 125.88814222167915,
        "alt_km": 339.2690185469346,
        "timestamp": "2025-12-02T06:27:51.802328+00:00",
        "meta_object_name": "STARLINK-35743",
        "meta_object_id": "2025-268X",
        "meta_epoch": "2025-12-01T20:00:01.999008",
        "meta_mean_motion": 15.79225112,
        "meta_eccentricity": 0.0001838,
        "meta_inclination": 42.9969,
        "meta_ra_of_asc_node": 185.8921,
        "meta_arg_of_pericenter": 262.8219,
        "meta_mean_anomaly": 71.8884,
        "meta_ephemeris_type": 0,
        "meta_classification_type": "U",
        "meta_norad_cat_id": 66578,
        "meta_element_set_no": 999,
        "meta_rev_at_epoch": 291,
        "meta_bstar": -0.010658,
        "meta_mean_motion_dot": -0.01741963,
        "meta_mean_motion_ddot": 0,
        "tle_line1": "1 66578U 25268X   25335.83335647 -.01741963  00000+0 -10658-1 0  9995",
        "tle_line2": "2 66578  42.9969 185.8921 0001838 262.8219  71.8884 15.79225112  2910"
      },
      "geometry": {
        "type": "Point",
        "coordinates": [
          125.88814222167915,
          -38.112667149355715
        ]
      }
    },
    {
      "type": "Feature",
      "properties": {
        "norad_id": 66579,
        "name": "STARLINK-35868",
        "group": "last-30-days",
        "lat": -37.30715212039409,
        "lon": 128.36022439008525,
        "alt_km": 339.452681970537,
        "timestamp": "2025-12-02T06:27:51.802338+00:00",
        "meta_object_name": "STARLINK-35868",
        "meta_object_id": "2025-268Y",
        "meta_epoch": "2025-12-01T20:00:01.999008",
        "meta_mean_motion": 15.79174014,
        "meta_eccentricity": 0.0001701,
        "meta_inclination": 42.997,
        "meta_ra_of_asc_node": 185.8863,
        "meta_arg_of_pericenter": 267.5549,
        "meta_mean_anomaly": 69.3696,
        "meta_ephemeris_type": 0,
        "meta_classification_type": "U",
        "meta_norad_cat_id": 66579,
        "meta_element_set_no": 999,
        "meta_rev_at_epoch": 291,
        "meta_bstar": -0.010763,
        "meta_mean_motion_dot": -0.01753322,
        "meta_mean_motion_ddot": 0,
        "tle_line1": "1 66579U 25268Y   25335.83335647 -.01753322  00000+0 -10763-1 0  9995",
        "tle_line2": "2 66579  42.9970 185.8863 0001701 267.5549  69.3696 15.79174014  2912"
      },
      "geometry": {
        "type": "Point",
        "coordinates": [
          128.36022439008525,
          -37.30715212039409
        ]
      }
    }
  ]
}